{
  "type": "FeatureCollection",
  "features": [
    {
      "type": "Feature",
      "properties": {
        "norad_id": 38867,
        "name": "INTELSAT 23 (IS-23)",
        "group": "intelsat",
        "lat": -0.025741280350620486,
        "lon": -9.715757561551829,
        "alt_km": 35784.94703850403,
        "timestamp": "2025-12-23T20:42:36.740100+00:00",
        "meta_object_name": "INTELSAT 23 (IS-23)",
        "meta_object_id": "2012-057A",
        "meta_epoch": "2025-12-23T05:52:14.717856",
        "meta_mean_motion": 1.00264375,
        "meta_eccentricity": 0.00010412,
        "meta_inclination": 0.0187,
        "meta_ra_of_asc_node": 43.4294,
        "meta_arg_of_pericenter": 265.4631,
        "meta_mean_anomaly": 178.2058,
        "meta_ephemeris_type": 0,
        "meta_classification_type": "U",
        "meta_norad_cat_id": 38867,
        "meta_element_set_no": 999,
        "meta_rev_at_epoch": 4819,
        "meta_bstar": 0,
        "meta_mean_motion_dot": -2.64e-06,
        "meta_mean_motion_ddot": 0,
        "tle_line1": "1 38867U 12057A   25357.24461479 -.00000264  00000+0  00000+0 0  9997",
        "tle_line2": "2 38867   0.0187  43.4294 0001041 265.4631 178.2058  1.00264375 48190"
      },
      "geometry": {
        "type": "Point",
        "coordinates": [
          -9.715757561551829,
          -0.025741280350620486
        ]
      }
    },
    {
      "type": "Feature",
      "properties": {
        "norad_id": 39360,
        "name": "FM-6",
        "group": "intelsat",
        "lat": -0.026179975081705747,
        "lon": -72.84503419335091,
        "alt_km": 35791.01952430152,
        "timestamp": "2025-12-23T20:42:36.740111+00:00",
        "meta_object_name": "FM-6",
        "meta_object_id": "2013-058A",
        "meta_epoch": "2025-12-23T05:52:00.631200",
        "meta_mean_motion": 1.00269952,
        "meta_eccentricity": 0.00030088,
        "meta_inclination": 0.012,
        "meta_ra_of_asc_node": 61.4957,
        "meta_arg_of_pericenter": 115.0989,
        "meta_mean_anomaly": 247.2786,
        "meta_ephemeris_type": 0,
        "meta_classification_type": "U",
        "meta_norad_cat_id": 39360,
        "meta_element_set_no": 999,
        "meta_rev_at_epoch": 4430,
        "meta_bstar": 0,
        "meta_mean_motion_dot": 4e-08,
        "meta_mean_motion_ddot": 0,
        "tle_line1": "1 39360U 13058A   25357.24445175  .00000004  00000+0  00000+0 0  9994",
        "tle_line2": "2 39360   0.0120  61.4957 0003008 115.0989 247.2786  1.00269952 44303"
      },
      "geometry": {
        "type": "Point",
        "coordinates": [
          -72.84503419335091,
          -0.026179975081705747
        ]
      }
    },
    {
      "type": "Feature",
      "properties": {
        "norad_id": 40271,
        "name": "INTELSAT 30 (IS-30)",
        "group": "intelsat",
        "lat": -0.03246647058464935,
        "lon": -51.764703433425375,
        "alt_km": 35792.32443655549,
        "timestamp": "2025-12-23T20:42:36.740123+00:00",
        "meta_object_name": "INTELSAT 30 (IS-30)",
        "meta_object_id": "2014-062A",
        "meta_epoch": "2025-12-23T03:22:26.874912",
        "meta_mean_motion": 1.00271687,
        "meta_eccentricity": 0.00017173,
        "meta_inclination": 0.0116,
        "meta_ra_of_asc_node": 17.0028,
        "meta_arg_of_pericenter": 79.4472,
        "meta_mean_anomaly": 311.0494,
        "meta_ephemeris_type": 0,
        "meta_classification_type": "U",
        "meta_norad_cat_id": 40271,
        "meta_element_set_no": 999,
        "meta_rev_at_epoch": 502,
        "meta_bstar": 0,
        "meta_mean_motion_dot": -1.3e-06,
        "meta_mean_motion_ddot": 0,
        "tle_line1": "1 40271U 14062A   25357.14058883 -.00000130  00000+0  00000+0 0  9999",
        "tle_line2": "2 40271   0.0116  17.0028 0001717  79.4472 311.0494  1.00271687  5022"
      },
      "geometry": {
        "type": "Point",
        "coordinates": [
          -51.764703433425375,
          -0.03246647058464935
        ]
      }
    },
    {
      "type": "Feature",
      "properties": {
        "norad_id": 40333,
        "name": "DIRECTV 14",
        "group": "intelsat",
        "lat": -0.041996456186820734,
        "lon": -55.92827524218861,
        "alt_km": 35787.82095812619,
        "timestamp": "2025-12-23T20:42:36.740135+00:00",
        "meta_object_name": "DIRECTV 14",
        "meta_object_id": "2014-078B",
        "meta_epoch": "2025-12-23T00:40:39.129888",
        "meta_mean_motion": 1.00271593,
        "meta_eccentricity": 4.075e-05,
        "meta_inclination": 0.0215,
        "meta_ra_of_asc_node": 12.0937,
        "meta_arg_of_pericenter": 126.9823,
        "meta_mean_anomaly": 223.6888,
        "meta_ephemeris_type": 0,
        "meta_classification_type": "U",
        "meta_norad_cat_id": 40333,
        "meta_element_set_no": 999,
        "meta_rev_at_epoch": 4027,
        "meta_bstar": 0,
        "meta_mean_motion_dot": 0,
        "meta_mean_motion_ddot": 0,
        "tle_line1": "1 40333U 14078B   25357.02823067  .00000000  00000+0  00000+0 0  9991",
        "tle_line2": "2 40333   0.0215  12.0937 0000407 126.9823 223.6888  1.00271593 40275"
      },
      "geometry": {
        "type": "Point",
        "coordinates": [
          -55.92827524218861,
          -0.041996456186820734
        ]
      }
    },
    {
      "type": "Feature",
      "properties": {
        "norad_id": 40663,
        "name": "DIRECTV 15",
        "group": "intelsat",
        "lat": -0.0446134061233478,
        "lon": -59.597476065903194,
        "alt_km": 35788.4867111833,
        "timestamp": "2025-12-23T20:42:36.740147+00:00",
        "meta_object_name": "DIRECTV 15",
        "meta_object_id": "2015-026A",
        "meta_epoch": "2025-12-23T03:20:33.614016",
        "meta_mean_motion": 1.00267208,
        "meta_eccentricity": 3.254e-05,
        "meta_inclination": 0.0221,
        "meta_ra_of_asc_node": 19.8534,
        "meta_arg_of_pericenter": 136.6441,
        "meta_mean_anomaly": 242.6949,
        "meta_ephemeris_type": 0,
        "meta_classification_type": "U",
        "meta_norad_cat_id": 40663,
        "meta_element_set_no": 999,
        "meta_rev_at_epoch": 3869,
        "meta_bstar": 0,
        "meta_mean_motion_dot": 0,
        "meta_mean_motion_ddot": 0,
        "tle_line1": "1 40663U 15026A   25357.13927794  .00000000  00000+0  00000+0 0  9995",
        "tle_line2": "2 40663   0.0221  19.8534 0000325 136.6441 242.6949  1.00267208 38699"
      },
      "geometry": {
        "type": "Point",
        "coordinates": [
          -59.597476065903194,
          -0.0446134061233478
        ]
      }
    },
    {
      "type": "Feature",
      "properties": {
        "norad_id": 40664,
        "name": "SKY MEXICO-1",
        "group": "intelsat",
        "lat": -0.026250178067932686,
        "lon": -35.454492279938805,
        "alt_km": 35778.11574628951,
        "timestamp": "2025-12-23T20:42:36.740159+00:00",
        "meta_object_name": "SKY MEXICO-1",
        "meta_object_id": "2015-026B",
        "meta_epoch": "2025-12-23T03:25:31.045152",
        "meta_mean_motion": 1.00270885,
        "meta_eccentricity": 0.0002421,
        "meta_inclination": 0.0122,
        "meta_ra_of_asc_node": 11.8669,
        "meta_arg_of_pericenter": 276.6952,
        "meta_mean_anomaly": 135.9924,
        "meta_ephemeris_type": 0,
        "meta_classification_type": "U",
        "meta_norad_cat_id": 40664,
        "meta_element_set_no": 999,
        "meta_rev_at_epoch": 3868,
        "meta_bstar": 0,
        "meta_mean_motion_dot": -2.13e-06,
        "meta_mean_motion_ddot": 0,
        "tle_line1": "1 40664U 15026B   25357.14272043 -.00000213  00000+0  00000+0 0  9994",
        "tle_line2": "2 40664   0.0122  11.8669 0002421 276.6952 135.9924  1.00270885 38683"
      },
      "geometry": {
        "type": "Point",
        "coordinates": [
          -35.454492279938805,
          -0.026250178067932686
        ]
      }
    },
    {
      "type": "Feature",
      "properties": {
        "norad_id": 40874,
        "name": "INTELSAT 34 (IS-34)",
        "group": "intelsat",
        "lat": 0.004530441571913335,
        "lon": -12.201286594749037,
        "alt_km": 35789.6290574929,
        "timestamp": "2025-12-23T20:42:36.740170+00:00",
        "meta_object_name": "INTELSAT 34 (IS-34)",
        "meta_object_id": "2015-039A",
        "meta_epoch": "2025-12-23T06:01:12.218304",
        "meta_mean_motion": 1.00270392,
        "meta_eccentricity": 7.454e-05,
        "meta_inclination": 0.0158,
        "meta_ra_of_asc_node": 309.6603,
        "meta_arg_of_pericenter": 208.5688,
        "meta_mean_anomaly": 328.6254,
        "meta_ephemeris_type": 0,
        "meta_classification_type": "U",
        "meta_norad_cat_id": 40874,
        "meta_element_set_no": 999,
        "meta_rev_at_epoch": 3786,
        "meta_bstar": 0,
        "meta_mean_motion_dot": -2.64e-06,
        "meta_mean_motion_ddot": 0,
        "tle_line1": "1 40874U 15039A   25357.25083586 -.00000264  00000+0  00000+0 0  9991",
        "tle_line2": "2 40874   0.0158 309.6603 0000745 208.5688 328.6254  1.00270392 37867"
      },
      "geometry": {
        "type": "Point",
        "coordinates": [
          -12.201286594749037,
          0.004530441571913335
        ]
      }
    }
  ]
}